{"type": "FeatureCollection", "features": [ {"type": "Feature", "properties": {"norad_id": 34058, "name": "COSMOS 2251 DEB", "group": "cosmos-2251-debris", "lat": 1.1040837597076625, "lon": 4.743117134342246, "alt_km": 771.6711563642693, "timestamp": "2025-12-08T10:52:03.341971+00:00", "meta": {"OBJECT_NAME": "COSMOS 2251 DEB", "OBJECT_ID": "1993-036JV", "EPOCH": "2025-12-07T23:57:27.539424", "MEAN_MOTION": 13.56065366, "ECCENTRICITY": 0.03781579, "INCLINATION": 73.9318, "RA_OF_ASC_NODE": 185.798, "ARG_OF_PERICENTER": 181.9388, "MEAN_ANOMALY": 298.6068, "EPHEMERIS_TYPE": 0, "CLASSIFICATION_TYPE": "U", "NORAD_CAT_ID": 34058, "ELEMENT_SET_NO": 999, "REV_AT_EPOCH": 83078, "BSTAR": 0.00084254085, "MEAN_MOTION_DOT": 9.14e-06, "MEAN_MOTION_DDOT": 0}, "tle": {"line1": "1 34058U 93036JV  25341.99823541  .00000914  00000+0  84254-3 0  9996", "line2": "2 34058  73.9318 185.7980 0378157 181.9388 298.6068 13.56065366830786"}}, "geometry": {"type": "Point", "coordinates": [4.743117134342246, 1.1040837597076625]}}, {"type": "Feature", "properties": {"norad_id": 34059, "name": "COSMOS 2251 DEB", "group": "cosmos-2251-debris", "lat": -13.178428044896675, "lon": -169.47909014147928, "alt_km": 716.7420092760995, "timestamp": "2025-12-08T10:52:03.341982+00:00", "meta": {"OBJECT_NAME": "COSMOS 2251 DEB", "OBJECT_ID": "1993-036JW", "EPOCH": "2025-12-07T23:55:05.128896", "MEAN_MOTION": 14.52905186, "ECCENTRICITY": 0.00187328, "INCLINATION": 74.0376, "RA_OF_ASC_NODE": 195.224, "ARG_OF_PERICENTER": 272.9737, "MEAN_ANOMALY": 207.9007, "EPHEMERIS_TYPE": 0, "CLASSIFICATION_TYPE": "U", "NORAD_CAT_ID": 34059, "ELEMENT_SET_NO": 999, "REV_AT_EPOCH": 88390, "BSTAR": 0.00099293544, "MEAN_MOTION_DOT": 4.072e-05, "MEAN_MOTION_DDOT": 0}, "tle": {"line1": "1 34059U 93036JW  25341.99658714  .00004072  00000+0  99294-3 0  9994", "line2": "2 34059  74.0376 195.2240 0018732 272.9737 207.9007 14.52905186883905"}}, "geometry": {"type": "Point", "coordinates": [-169.47909014147928, -13.178428044896675]}}, {"type": "Feature", "properties": {"norad_id": 34061, "name": "COSMOS 2251 DEB", "group": "cosmos-2251-debris", "lat": 12.286175712250325, "lon": 87.74012487787809, "alt_km": 772.7719424243742, "timestamp": "2025-12-08T10:52:03.341993+00:00", "meta": {"OBJECT_NAME": "COSMOS 2251 DEB", "OBJECT_ID": "1993-036JY", "EPOCH": "2025-12-07T22:46:56.578080", "MEAN_MOTION": 14.40340363, "ECCENTRICITY": 0.00203534, "INCLINATION": 74.0403, "RA_OF_ASC_NODE": 272.2436, "ARG_OF_PERICENTER": 349.9097, "MEAN_ANOMALY": 87.2157, "EPHEMERIS_TYPE": 0, "CLASSIFICATION_TYPE": "U", "NORAD_CAT_ID": 34061, "ELEMENT_SET_NO": 999, "REV_AT_EPOCH": 88111, "BSTAR": 0.00056071721, "MEAN_MOTION_DOT": 1.756e-05, "MEAN_MOTION_DDOT": 0}, "tle": {"line1": "1 34061U 93036JY  25341.94926595  .00001756  00000+0  56072-3 0  9990", "line2": "2 34061  74.0403 272.2436 0020353 349.9097  87.2157 14.40340363881111"}}, "geometry": {"type": "Point", "coordinates": [87.74012487787809, 12.286175712250325]}}, {"type": "Feature", "properties": {"norad_id": 34062, "name": "COSMOS 2251 DEB", "group": "cosmos-2251-debris", "lat": 55.12810055034986, "lon": 170.73268442440929, "alt_km": 680.5683544252906, "timestamp": "2025-12-08T10:52:03.342003+00:00", "meta": {"OBJECT_NAME": "COSMOS 2251 DEB", "OBJECT_ID": "1993-036JZ", "EPOCH": "2025-12-07T22:10:46.782048", "MEAN_MOTION": 14.78360018, "ECCENTRICITY": 0.00755602, "INCLINATION": 74.0281, "RA_OF_ASC_NODE": 147.5048, "ARG_OF_PERICENTER": 227.4728, "MEAN_ANOMALY": 258.9039, "EPHEMERIS_TYPE": 0, "CLASSIFICATION_TYPE": "U", "NORAD_CAT_ID": 34062, "ELEMENT_SET_NO": 999, "REV_AT_EPOCH": 88524, "BSTAR": 0.0034271661, "MEAN_MOTION_DOT": 0.00026228, "MEAN_MOTION_DDOT": 0}, "tle": {"line1": "1 34062U 93036JZ  25341.92415257  .00026228  00000+0  34272-2 0  9995", "line2": "2 34062  74.0281 147.5048 0075560 227.4728 258.9039 14.78360018885244"}}, "geometry": {"type": "Point", "coordinates": [170.73268442440929, 55.12810055034986]}}, {"type": "Feature", "properties": {"norad_id": 34064, "name": "COSMOS 2251 DEB", "group": "cosmos-2251-debris", "lat": 64.2467672382354, "lon": 62.415917023519995, "alt_km": 753.1436389077253, "timestamp": "2025-12-08T10:52:03.342013+00:00", "meta": {"OBJECT_NAME": "COSMOS 2251 DEB", "OBJECT_ID": "1993-036KB", "EPOCH": "2025-12-07T21:18:11.233728", "MEAN_MOTION": 14.42309786, "ECCENTRICITY": 0.00219391, "INCLINATION": 74.0331, "RA_OF_ASC_NODE": 279.8689, "ARG_OF_PERICENTER": 346.8487, "MEAN_ANOMALY": 69.9345, "EPHEMERIS_TYPE": 0, "CLASSIFICATION_TYPE": "U", "NORAD_CAT_ID": 34064, "ELEMENT_SET_NO": 999, "REV_AT_EPOCH": 88072, "BSTAR": 0.00083103273, "MEAN_MOTION_DOT": 2.726e-05, "MEAN_MOTION_DDOT": 0}, "tle": {"line1": "1 34064U 93036KB  25341.88763002  .00002726  00000+0  83103-3 0  9991", "line2": "2 34064  74.0331 279.8689 0021939 346.8487  69.9345 14.42309786880725"}}, "geometry": {"type": "Point", "coordinates": [62.415917023519995, 64.2467672382354]}}, {"type": "Feature", "properties": {"norad_id": 34065, "name": "COSMOS 2251 DEB", "group": "cosmos-2251-debris", "lat": -8.996774006257773, "lon": 88.61482664666522, "alt_km": 780.1320650123453, "timestamp": "2025-12-08T10:52:03.342024+00:00", "meta": {"OBJECT_NAME": "COSMOS 2251 DEB", "OBJECT_ID": "1993-036KC", "EPOCH": "2025-12-07T22:38:49.888608", "MEAN_MOTION": 14.38053902, "ECCENTRICITY": 0.00161426, "INCLINATION": 74.0358, "RA_OF_ASC_NODE": 266.9547, "ARG_OF_PERICENTER": 5.4707, "MEAN_ANOMALY": 68.812, "EPHEMERIS_TYPE": 0, "CLASSIFICATION_TYPE": "U", "NORAD_CAT_ID": 34065, "ELEMENT_SET_NO": 999, "REV_AT_EPOCH": 88136, "BSTAR": 0.00028796982, "MEAN_MOTION_DOT": 8.47e-06, "MEAN_MOTION_DDOT": 0}, "tle": {"line1": "1 34065U 93036KC  25341.94363297  .00000847  00000+0  28797-3 0  9991", "line2": "2 34065  74.0358 266.9547 0016142   5.4707  68.8120 14.38053902881369"}}, "geometry": {"type": "Point", "coordinates": [88.61482664666522, -8.996774006257773]}}, {"type": "Feature", "properties": {"norad_id": 34070, "name": "COSMOS 2251 DEB", "group": "cosmos-2251-debris", "lat": -13.663024697931407, "lon": -51.31319086125933, "alt_km": 634.3158175560002, "timestamp": "2025-12-08T10:52:03.342034+00:00", "meta": {"OBJECT_NAME": "COSMOS 2251 DEB", "OBJECT_ID": "1993-036KH", "EPOCH": "2025-12-07T16:10:24.382848", "MEAN_MOTION": 14.76745088, "ECCENTRICITY": 0.00189871, "INCLINATION": 74.0011, "RA_OF_ASC_NODE": 126.2164, "ARG_OF_PERICENTER": 241.0351, "MEAN_ANOMALY": 133.9092, "EPHEMERIS_TYPE": 0, "CLASSIFICATION_TYPE": "U", "NORAD_CAT_ID": 34070, "ELEMENT_SET_NO": 999, "REV_AT_EPOCH": 88536, "BSTAR": 0.004411584, "MEAN_MOTION_DOT": 0.00031115, "MEAN_MOTION_DDOT": 0}, "tle": {"line1": "1 34070U 93036KH  25341.67389332  .00031115  00000+0  44116-2 0  9999", "line2": "2 34070  74.0011 126.2164 0018987 241.0351 133.9092 14.76745088885367"}}, "geometry": {"type": "Point", "coordinates": [-51.31319086125933, -13.663024697931407]}}, {"type": "Feature", "properties": {"norad_id": 34114, "name": "COSMOS 2251 DEB", "group": "cosmos-2251-debris", "lat": -0.8402177487053067, "lon": 51.713884135274974, "alt_km": 685.7670435806995, "timestamp": "2025-12-08T10:52:03.342045+00:00", "meta": {"OBJECT_NAME": "COSMOS 2251 DEB", "OBJECT_ID": "1993-036KK", "EPOCH": "2025-12-07T15:39:07.181280", "MEAN_MOTION": 14.56273408, "ECCENTRICITY": 0.00473771, "INCLINATION": 74.0586, "RA_OF_ASC_NODE": 53.4701, "ARG_OF_PERICENTER": 49.8769, "MEAN_ANOMALY": 73.993, "EPHEMERIS_TYPE": 0, "CLASSIFICATION_TYPE": "U", "NORAD_CAT_ID": 34114, "ELEMENT_SET_NO": 999, "REV_AT_EPOCH": 87727, "BSTAR": 0.0027751934, "MEAN_MOTION_DOT": 0.00012466, "MEAN_MOTION_DDOT": 0}, "tle": {"line1": "1 34114U 93036KK  25341.65216645  .00012466  00000+0  27752-2 0  9997", "line2": "2 34114  74.0586  53.4701 0047377  49.8769  73.9930 14.56273408877278"}}, "geometry": {"type": "Point", "coordinates": [51.713884135274974, -0.8402177487053067]}}, {"type": "Feature", "properties": {"norad_id": 34115, "name": "COSMOS 2251 DEB", "group": "cosmos-2251-debris", "lat": 59.29189329233793, "lon": 41.52091549476548, "alt_km": 610.1991549571112, "timestamp": "2025-12-08T10:52:03.342055+00:00", "meta": {"OBJECT_NAME": "COSMOS 2251 DEB", "OBJECT_ID": "1993-036KL", "EPOCH": "2025-12-07T19:44:18.405600", "MEAN_MOTION": 14.79374254, "ECCENTRICITY": 0.00283394, "INCLINATION": 74.0073, "RA_OF_ASC_NODE": 251.6361, "ARG_OF_PERICENTER": 76.6675, "MEAN_ANOMALY": 283.7658, "EPHEMERIS_TYPE": 0, "CLASSIFICATION_TYPE": "U", "NORAD_CAT_ID": 34115, "ELEMENT_SET_NO": 999, "REV_AT_EPOCH": 89339, "BSTAR": 0.0017811435, "MEAN_MOTION_DOT": 0.0001336, "MEAN_MOTION_DDOT": 0}, "tle": {"line1": "1 34115U 93036KL  25341.82243525  .00013360  00000+0  17811-2 0  9993", "line2": "2 34115  74.0073 251.6361 0028339  76.6675 283.7658 14.79374254893390"}}, "geometry": {"type": "Point", "coordinates": [41.52091549476548, 59.29189329233793]}}, {"type": "Feature", "properties": {"norad_id": 34116, "name": "COSMOS 2251 DEB", "group": "cosmos-2251-debris", "lat": 49.339320901541875, "lon": -8.599303425604752, "alt_km": 717.7348322978396, "timestamp": "2025-12-08T10:52:03.342066+00:00", "meta": {"OBJECT_NAME": "COSMOS 2251 DEB", "OBJECT_ID": "1993-036KM", "EPOCH": "2025-12-07T18:07:09.935904", "MEAN_MOTION": 14.52935135, "ECCENTRICITY": 0.0012167, "INCLINATION": 74.0398, "RA_OF_ASC_NODE": 192.1783, "ARG_OF_PERICENTER": 268.2633, "MEAN_ANOMALY": 171.0501, "EPHEMERIS_TYPE": 0, "CLASSIFICATION_TYPE": "U", "NORAD_CAT_ID": 34116, "ELEMENT_SET_NO": 999, "REV_AT_EPOCH": 88414, "BSTAR": 0.0011525523, "MEAN_MOTION_DOT": 4.729e-05, "MEAN_MOTION_DDOT": 0}, "tle": {"line1": "1 34116U 93036KM  25341.75497611  .00004729  00000+0  11526-2 0  9999", "line2": "2 34116  74.0398 192.1783 0012167 268.2633 171.0501 14.52935135884144"}}, "geometry": {"type": "Point", "coordinates": [-8.599303425604752, 49.339320901541875]}}]}